NORAD_CAT_ID,OBJECT_NAME,OBJECT_TYPE,EPOCH,MEAN_MOTION,ECCENTRICITY,INCLINATION,RA_OF_ASC_NODE,ARG_OF_PERICENTER,MEAN_ANOMALY,BSTAR,MEAN_MOTION_DOT,MEAN_MOTION_DDOT,TLE_LINE0,TLE_LINE1,TLE_LINE2,SEMIMAJOR_AXIS,PERIOD,APOGEE,PERIGEE,DECAYED
53999.0,STARLINK-5079,PAYLOAD,2022-12-12 22:00:00,15.08852431,0.0001385999999999,53.2185,123.7156,72.7451,341.8474,-0.0012314,-0.00019839,0.0,0 STARLINK-5079,1 53999U 22125AM  22346.91667824 -.00019839  00000-0 -12314-2 0  9992,2 53999  53.2185 123.7156 0001386  72.7451 341.8474 15.08852431 10975,6917.842,95.437,540.6659999999998,538.749,0.0
53999.0,STARLINK-5079,PAYLOAD,2022-12-13 14:00:01,15.08858512,0.0001486,53.2178,120.7156,78.0685,359.7244,-0.0020909,-0.00033427,0.0,0 STARLINK-5079,1 53999U 22125AM  22347.58334491 -.00033427  00000-0 -20909-2 0  9995,2 53999  53.2178 120.7156 0001486  78.0685 359.7244 15.08858512  1309,6917.824000000001,95.436,540.717,538.661,0.0
53999.0,STARLINK-5079,PAYLOAD,2022-12-13 16:50:12,15.08849081,0.0001531999999999,53.219,120.1912,78.4856,281.6308,0.0001478,2.066e-05,0.0,0 STARLINK-5079,1 53999U 22125AM  22347.70153081  .00002066  00000-0  14780-3 0  9997,2 53999  53.2190 120.1912 0001532  78.4856 281.6308 15.08849081 11095,6917.853,95.437,540.7769999999998,538.658,0.0
53999.0,STARLINK-5079,PAYLOAD,2022-12-13 18:25:35,15.0885108,0.0001543,53.2191,119.8938,78.4202,281.6963,0.00024565,3.625e-05,0.0,0 STARLINK-5079,1 53999U 22125AM  22347.76777055  .00003625  00000-0  24565-3 0  9990,2 53999  53.2191 119.8938 0001543  78.4202 281.6963 15.08851080 11039,6917.847,95.437,540.779,538.644,0.0
53999.0,STARLINK-5079,PAYLOAD,2022-12-14 02:22:30,15.08854147,0.0001546,53.2192,118.4071,77.525,282.5915,0.00027029,4.018e-05,0.0,0 STARLINK-5079,1 53999U 22125AM  22348.09896760  .00004018  00000-0  27029-3 0  9997,2 53999  53.2192 118.4071 0001546  77.5250 282.5915 15.08854147 11088,6917.837,95.437,540.7719999999998,538.633,0.0
53999.0,STARLINK-5079,PAYLOAD,2022-12-14 16:40:58,15.08844307,0.0001351,53.2202,115.7318,72.6249,287.4891,-4.8026e-06,-3.64e-06,0.0,0 STARLINK-5079,1 53999U 22125AM  22348.69512698 -.00000364  00000-0 -48026-5 0  9992,2 53999  53.2202 115.7318 0001351  72.6249 287.4891 15.08844307 11244,6917.8669999999975,95.437,540.6669999999998,538.798,0.0
53999.0,STARLINK-5079,PAYLOAD,2022-12-15 13:20:59,15.08842831,0.0001547,53.2195,111.8661,73.4929,286.6233,3.5332e-05,2.74e-06,0.0,0 STARLINK-5079,1 53999U 22125AM  22349.55624739  .00000274  00000-0  35332-4 0  9991,2 53999  53.2195 111.8661 0001547  73.4929 286.6233 15.08842831 11302,6917.871999999999,95.437,540.807,538.6669999999998,0.0
53999.0,STARLINK-5079,PAYLOAD,2022-12-15 19:42:31,15.08851078,0.0001524,53.2194,110.6762,75.0494,285.0667,0.00012718,1.737e-05,0.0,0 STARLINK-5079,1 53999U 22125AM  22349.82120224  .00001737  00000-0  12718-3 0  9998,2 53999  53.2194 110.6762 0001524  75.0494 285.0667 15.08851078 11341,6917.847,95.437,540.766,538.6569999999998,0.0
53999.0,STARLINK-5079,PAYLOAD,2022-12-16 13:11:46,15.08847823,0.0001273,53.2203,107.4062,68.9996,291.1133,0.00011478,1.5399999999999998e-05,0.0,0 STARLINK-5079,1 53999U 22125AM  22350.54983911  .00001540  00000-0  11478-3 0  9993,2 53999  53.2203 107.4062 0001273  68.9996 291.1133 15.08847823 11459,6917.856,95.437,540.602,538.841,0.0
53999.0,STARLINK-5079,PAYLOAD,2022-12-16 17:57:55,15.08841292,0.0001401,53.2198,106.5138,69.6581,290.4561,5.594e-05,6.02e-06,0.0,0 STARLINK-5079,1 53999U 22125AM  22350.74856210  .00000602  00000-0  55940-4 0  9997,2 53999  53.2198 106.5138 0001401  69.6581 290.4561 15.08841292 11559,6917.876,95.437,540.711,538.7719999999998,0.0
53999.0,STARLINK-5079,PAYLOAD,2022-12-16 19:33:19,15.08811474,0.0001321,53.2209,106.2166,80.3092,279.8049,0.0004217,6.425e-05,0.0,0 STARLINK-5079,1 53999U 22125AM  22350.81481190  .00006425  00000-0  42170-3 0  9995,2 53999  53.2209 106.2166 0001321  80.3092 279.8049 15.08811474 11492,6917.968000000003,95.439,540.746,538.919,0.0
53999.0,STARLINK-5079,PAYLOAD,2022-12-17 00:19:29,15.08826507,0.0001365,53.2206,105.3243,70.9558,289.1582,-1.0876e-05,-4.61e-06,0.0,0 STARLINK-5079,1 53999U 22125AM  22351.01353338 -.00000461  00000-0 -10876-4 0  9995,2 53999  53.2206 105.3243 0001365  70.9558 289.1582 15.08826507 11595,6917.922,95.438,540.731,538.842,0.0
53999.0,STARLINK-5079,PAYLOAD,2022-12-17 09:51:47,15.08841489,0.0001395,53.2197,103.5396,67.0375,293.0764,-4.7273e-05,-1.04e-05,0.0,0 STARLINK-5079,1 53999U 22125AM  22351.41096552 -.00001040  00000-0 -47273-4 0  9996,2 53999  53.2197 103.5396 0001395  67.0375 293.0764 15.08841489 11659,6917.876,95.437,540.706,538.776,0.0
53999.0,STARLINK-5079,PAYLOAD,2022-12-17 14:37:56,15.08842859,0.0001334,53.2204,102.6476,79.4208,280.6935,-3.035e-05,-7.71e-06,0.0,0 STARLINK-5079,1 53999U 22125AM  22351.60968360 -.00000771  00000-0 -30350-4 0  9990,2 53999  53.2204 102.6476 0001334  79.4208 280.6935 15.08842859 11612,6917.871999999999,95.437,540.659,538.814,0.0
53999.0,STARLINK-5079,PAYLOAD,2022-12-17 16:13:20,15.08832829,0.0001328,53.2207,102.3511,68.0746,292.0387,4.747e-05,4.68e-06,0.0,0 STARLINK-5079,1 53999U 22125AM  22351.67592931  .00000468  00000-0  47470-4 0  9996,2 53999  53.2207 102.3511 0001328  68.0746 292.0387 15.08832829 11621,6917.901999999999,95.438,540.686,538.849,0.0
53999.0,STARLINK-5079,PAYLOAD,2022-12-18 08:07:12,15.08831945,0.0001301,53.2214,99.3786,68.9828,291.1303,-5.5006e-05,-1.163e-05,0.0,0 STARLINK-5079,1 53999U 22125AM  22352.33833481 -.00001163  00000-0 -55006-4 0  9997,2 53999  53.2214  99.3786 0001301  68.9828 291.1303 15.08831945 11793,6917.905,95.438,540.67,538.87,0.0
53999.0,STARLINK-5079,PAYLOAD,2022-12-18 17:39:31,15.08833281,0.0001324,53.2213,97.595,62.67,297.4427,-4.2725e-05,-9.68e-06,0.0,0 STARLINK-5079,1 53999U 22125AM  22352.73577589 -.00000968  00000-0 -42725-4 0  9991,2 53999  53.2213  97.5950 0001324  62.6700 297.4427 15.08833281 11780,6917.901,95.438,540.682,538.85,0.0
53999.0,STARLINK-5079,PAYLOAD,2022-12-19 00:01:03,15.0883654,0.0001402,53.2214,96.4056,68.9141,291.2001,7.0282e-05,8.31e-06,0.0,0 STARLINK-5079,1 53999U 22125AM  22353.00073219  .00000831  00000-0  70282-4 0  9999,2 53999  53.2214  96.4056 0001402  68.9141 291.2001 15.08836540 11894,6917.891,95.438,540.726,538.786,0.0
53999.0,STARLINK-5079,PAYLOAD,2022-12-19 06:22:35,15.08838394,0.0001098,53.2218,95.2154,64.0237,296.0868,0.00018312,2.628e-05,0.0,0 STARLINK-5079,1 53999U 22125AM  22353.26568864  .00002628  00000-0  18312-3 0  9993,2 53999  53.2218  95.2154 0001098  64.0237 296.0868 15.08838394 11868,6917.885,95.438,540.51,538.991,0.0
53999.0,STARLINK-5079,PAYLOAD,2022-12-19 14:19:30,15.08852517,0.0001242,53.2215,93.7291,56.1043,304.0068,0.00019408,2.803e-05,0.0,0 STARLINK-5079,1 53999U 22125AM  22353.59688068  .00002803  00000-0  19408-3 0  9990,2 53999  53.2215  93.7291 0001242  56.1043 304.0068 15.08852517 11986,6917.842,95.437,540.566,538.8480000000002,0.0
53999.0,STARLINK-5079,PAYLOAD,2022-12-20 07:48:45,15.08849908,0.0001475,53.22,90.4577,67.3868,292.728,0.000257,3.806e-05,0.0,0 STARLINK-5079,1 53999U 22125AM  22354.32552270  .00003806  00000-0  25700-3 0  9993,2 53999  53.2200  90.4577 0001475  67.3868 292.7280 15.08849908 12090,6917.85,95.437,540.735,538.695,0.0
53999.0,STARLINK-5079,PAYLOAD,2022-12-20 10:59:31,15.08854628,0.0001703,53.2214,89.8637,69.797,290.3205,0.00028367,4.231e-05,0.0,0 STARLINK-5079,1 53999U 22125AM  22354.45799993  .00004231  00000-0  28367-3 0  9997,2 53999  53.2214  89.8637 0001703  69.7970 290.3205 15.08854628 12049,6917.8359999999975,95.437,540.879,538.523,0.0
53999.0,STARLINK-5079,PAYLOAD,2022-12-21 06:04:09,15.08839335,0.0001557,53.22,86.2947,67.2724,292.8433,-3.9746e-05,-9.2e-06,0.0,0 STARLINK-5079,1 53999U 22125AM  22355.25288561 -.00000920  00000-0 -39746-4 0  9997,2 53999  53.2200  86.2947 0001557  67.2724 292.8433 15.08839335 12235,6917.882,95.438,540.825,538.67,0.0
53999.0,STARLINK-5079,PAYLOAD,2022-12-21 10:50:18,15.08831906,0.0001423,53.2214,85.4001,69.3971,290.7174,-0.00018213,-3.185e-05,0.0,0 STARLINK-5079,1 53999U 22125AM  22355.45160715 -.00003185  00000-0 -18213-3 0  9990,2 53999  53.2214  85.4001 0001423  69.3971 290.7174 15.08831906 12191,6917.905,95.438,540.755,538.786,0.0
53999.0,STARLINK-5079,PAYLOAD,2022-12-21 23:33:24,15.08827787,0.0001322,53.2221,83.0224,72.6222,287.4915,-0.00019165,-3.336e-05,0.0,0 STARLINK-5079,1 53999U 22125AM  22355.98153504 -.00003336  00000-0 -19165-3 0  9991,2 53999  53.2221  83.0224 0001322  72.6222 287.4915 15.08827787 12349,6917.918000000002,95.438,540.697,538.868,0.0
53999.0,STARLINK-5079,PAYLOAD,2022-12-22 09:05:43,15.08836108,0.0001373,53.221,81.2405,58.9692,301.1435,2.696e-05,1.41e-06,0.0,0 STARLINK-5079,1 53999U 22125AM  22356.37897336  .00000141  00000-0  26960-4 0  9994,2 53999  53.2210  81.2405 0001373  58.9692 301.1435 15.08836108 12407,6917.892,95.438,540.707,538.807,0.0
53999.0,STARLINK-5079,PAYLOAD,2022-12-22 12:16:29,15.08839323,0.0001399,53.2209,80.6455,61.2347,298.8785,8.6385e-05,1.087e-05,0.0,0 STARLINK-5079,1 53999U 22125AM  22356.51145248  .00001087  00000-0  86385-4 0  9995,2 53999  53.2209  80.6455 0001399  61.2347 298.8785 15.08839323 12351,6917.882,95.438,540.715,538.78,0.0
53999.0,STARLINK-5079,PAYLOAD,2022-12-22 15:27:15,15.08842852,0.0001375999999999,53.2209,80.0515,55.7259,304.3863,0.00012961,1.776e-05,0.0,0 STARLINK-5079,1 53999U 22125AM  22356.64393175  .00001776  00000-0  12961-3 0  9996,2 53999  53.2209  80.0515 0001376  55.7259 304.3863 15.08842852 12370,6917.871999999999,95.437,540.689,538.785,0.0
53999.0,STARLINK-5079,PAYLOAD,2022-12-23 08:56:31,15.08825331,0.0001541999999999,53.2198,76.781,53.4918,306.6216,0.00022335,3.267e-05,0.0,0 STARLINK-5079,1 53999U 22125AM  22357.37258770  .00003267  00000-0  22335-3 0  9991,2 53999  53.2198  76.7810 0001542  53.4918 306.6216 15.08825331 12559,6917.925,95.438,540.857,538.7230000000002,0.0
